OBJECT_NAME,OBJECT_ID,EPOCH,MEAN_MOTION,ECCENTRICITY,INCLINATION,RA_OF_ASC_NODE,ARG_OF_PERICENTER,MEAN_ANOMALY,EPHEMERIS_TYPE,CLASSIFICATION_TYPE,NORAD_CAT_ID,ELEMENT_SET_NO,REV_AT_EPOCH,BSTAR,MEAN_MOTION_DOT,MEAN_MOTION_DDOT
GALAXY 37 (G-37),2023-112A,2026-07-23T12:06:38.778336,1.00271571,.0002134,0.0152,66.8102,49.1315,239.9543,0,U,57493,999,1090,0,.53E-6,0
LUDI TANCE-4 01A,2023-120A,2026-07-22T14:27:27.447264,1.00275057,.00017051,15.0824,193.0909,10.1521,43.5828,0,U,57624,999,1090,0,-.168E-5,0
TJS-10,2023-169A,2026-07-22T11:45:44.360064,1.00272313,.0004128,2.6328,80.0686,111.4129,17.6036,0,U,58204,999,989,0,-.248E-5,0
ZHONGXING-6E,2023-172A,2026-07-23T01:56:38.692032,1.00268384,.00030469,0.0514,246.3651,226.3469,332.7426,0,U,58253,999,1001,0,-.357E-5,0
YAOGAN-41,2023-197A,2026-07-23T15:16:54.367968,1.00273598,.00141529,3.0636,313.7187,200.1336,139.9160,0,U,58582,999,968,0,-.353E-5,0
OVZON-3,2024-003A,2026-07-23T09:50:48.433056,1.00273255,.00002675,0.0210,154.3993,274.8996,79.2268,0,U,58698,999,781,0,.56E-6,0
INSAT-3DS,2024-033A,2026-07-23T13:22:31.723104,1.00273517,.00012803,0.0707,262.2335,216.2671,105.4693,0,U,58990,999,4743,0,-.151E-5,0
MERAH PUTIH 2,2024-035A,2026-07-23T13:08:38.686272,1.00270866,.00012818,0.0169,75.3432,39.9034,136.1368,0,U,58995,999,895,0,-.353E-5,0
TJS-11,2024-037A,2026-07-22T16:59:25.704960,1.00271151,.0002111,4.1533,327.5299,157.9968,182.3596,0,U,59020,999,893,0,-.355E-5,0
HULIANWAN GAOGUI-01 (HG-01),2024-040A,2026-07-23T06:18:04.821120,1.00271574,.00016539,0.0753,332.8067,77.1966,19.1378,0,U,59069,999,769,0,.16E-5,0
EUTELSAT 36D,2024-059A,2026-07-23T13:09:15.681888,1.00270188,.00001394,0.0245,61.2060,35.4304,77.8112,0,U,59346,999,851,0,0,0
PAKSAT-MM1,2024-104A,2026-07-23T13:10:00.609888,1.00275849,.00023036,0.0312,171.1212,290.3444,75.5672,0,U,59915,999,789,0,.158E-5,0
ASTRA 1P (SES-24),2024-115A,2026-07-23T02:48:37.764000,1.00268700,.0001164,0.0671,323.7661,247.1895,151.2508,0,U,60086,999,755,0,.124E-5,0
GOES 19,2024-119A,2026-07-23T12:37:41.208960,1.00272112,.00003247,0.0205,124.2755,46.6739,244.5382,0,U,60133,999,732,0,-.244E-5,0
ZHONGXING-3A,2024-122A,2026-07-22T18:38:53.831616,1.00271192,.0001619,0.0306,139.3053,19.7453,162.7656,0,U,60179,999,766,0,-.309E-5,0
TURKSAT 6A,2024-127A,2026-07-21T20:07:24.773088,1.00274233,.0003146,0.0444,216.7267,310.1163,116.5770,0,U,60233,999,736,0,.149E-5,0
HULIANWAN GAOGUI-02 (HG-02),2024-135A,2026-07-22T10:42:36.182304,1.00274738,.00058941,0.0479,358.6429,13.0934,242.1466,0,U,60327,999,785,0,-.17E-5,0
ZHONGXING-4A,2024-151A,2026-07-23T13:08:38.686272,1.00271637,.00001042,1.2225,270.3962,248.5090,97.7582,0,U,60606,999,711,0,-.356E-5,0
HULIANWAN GAOGUI-03 (HG-03),2024-181A,2026-07-22T21:33:17.737344,1.00275075,.00015336,0.0529,1.4631,86.3948,98.9604,0,U,61503,999,718,0,-.237E-5,0
DSN-3 (KIRAMEKI-3),2024-198A,2026-07-23T13:40:07.535424,1.00270571,.00012233,0.0251,277.4585,222.5987,150.3257,0,U,61733,999,628,0,-.245E-5,0
KOREASAT 6A,2024-206A,2026-07-23T13:08:38.686272,1.00272114,.00010852,0.0003,92.5433,356.1249,165.7933,0,U,61910,999,620,0,-.357E-5,0
OPTUS-X (ADS-01),2024-212A,2026-07-23T14:49:15.944160,1.00271888,.00025164,0.0398,264.2208,235.8439,180.0023,0,U,62006,999,612,0,-.138E-5,0
GSAT-N2 (GSAT-20),2024-214A,2026-07-23T13:18:24.618240,1.00273238,.0002722,0.0572,257.2382,156.5768,155.0142,0,U,62028,999,626,0,-.15E-6,0
SXM-9,2024-234A,2026-07-23T07:26:52.944000,1.00270897,.00046451,0.0146,351.4562,329.3108,6.8217,0,U,62259,999,593,0,-.2E-5,0
TJS-12,2024-246A,2026-07-22T20:34:17.812704,1.00267847,.00019539,0.5955,303.0087,105.5609,347.0341,0,U,62374,999,592,0,-.228E-5,0
NUVIEW ALPHA,2024-252B,2026-07-23T12:35:18.935808,1.00271467,.00009357,0.0390,16.1130,64.2611,326.6038,0,U,62455,999,418,0,-.21E-5,0
AGILA,2024-252C,2026-07-23T13:42:29.807712,1.00271045,.00015951,0.0426,211.7272,277.3715,169.9813,0,U,62456,999,552,0,-.177E-5,0
NUVIEW BRAVO,2024-252D,2026-07-23T12:35:18.935808,1.00272830,.0001909,0.0675,170.1923,336.4608,260.3331,0,U,62457,999,415,0,-.21E-5,0
THURAYA-4,2025-001A,2026-07-23T08:33:38.785824,1.00272811,.00003301,0.0199,76.9748,62.7418,334.0969,0,U,62483,999,454,0,.144E-5,0
SHIJIAN-25 (SJ-25),2025-002A,2026-07-22T13:38:20.852160,1.00275607,.0050731,5.1950,60.9361,176.6753,34.4537,0,U,62485,999,571,0,-.35E-5,0
TJS-14,2025-017A,2026-07-23T14:46:53.634720,1.00271525,.00018076,0.7028,298.4491,300.4820,302.4885,0,U,62804,999,563,0,.121E-5,0
