GALAXY 37 (G-37)        
1 57493U 23112A   26204.50461549  .00000053  00000+0  00000+0 0  9991
2 57493   0.0152  66.8102 0002134  49.1315 239.9543  1.00271571 10903
LUDI TANCE-4 01A        
1 57624U 23120A   26203.60240101 -.00000168  00000+0  00000+0 0  9993
2 57624  15.0824 193.0909 0001705  10.1521  43.5828  1.00275057 10907
TJS-10                  
1 58204U 23169A   26203.49009676 -.00000248  00000+0  00000+0 0  9997
2 58204   2.6328  80.0686 0004128 111.4129  17.6036  1.00272313  9892
ZHONGXING-6E            
1 58253U 23172A   26204.08100338 -.00000357  00000+0  00000+0 0  9999
2 58253   0.0514 246.3651 0003046 226.3469 332.7426  1.00268384 10018
YAOGAN-41               
1 58582U 23197A   26204.63674037 -.00000353  00000+0  00000+0 0  9990
2 58582   3.0636 313.7187 0014152 200.1336 139.9160  1.00273598  9683
OVZON-3                 
1 58698U 24003A   26204.41028279  .00000056  00000+0  00000+0 0  9991
2 58698   0.0210 154.3993 0000267 274.8996  79.2268  1.00273255  7810
INSAT-3DS               
1 58990U 24033A   26204.55731161 -.00000151  00000+0  00000+0 0  9992
2 58990   0.0707 262.2335 0001280 216.2671 105.4693  1.00273517 47438
MERAH PUTIH 2           
1 58995U 24035A   26204.54766998 -.00000353  00000+0  00000+0 0  9998
2 58995   0.0169  75.3432 0001281  39.9034 136.1368  1.00270866  8958
TJS-11                  
1 59020U 24037A   26203.70793640 -.00000355  00000+0  00000+0 0  9993
2 59020   4.1533 327.5299 0002111 157.9968 182.3596  1.00271151  8933
HULIANWAN GAOGUI-01 (H*)
1 59069U 24040A   26204.26255580  .00000160  00000+0  00000+0 0  9991
2 59069   0.0753 332.8067 0001653  77.1966  19.1378  1.00271574  7694
EUTELSAT 36D            
1 59346U 24059A   26204.54809817  .00000000  00000+0  00000+0 0  9991
2 59346   0.0245  61.2060 0000139  35.4304  77.8112  1.00270188  8514
PAKSAT-MM1              
1 59915U 24104A   26204.54861817  .00000158  00000+0  00000+0 0  9996
2 59915   0.0312 171.1212 0002303 290.3444  75.5672  1.00275849  7898
ASTRA 1P (SES-24)       
1 60086U 24115A   26204.11710375  .00000124  00000+0  00000+0 0  9997
2 60086   0.0671 323.7661 0001164 247.1895 151.2508  1.00268700  7555
GOES 19                 
1 60133U 24119A   26204.52617140 -.00000244  00000+0  00000+0 0  9999
2 60133   0.0205 124.2755 0000324  46.6739 244.5382  1.00272112  7328
ZHONGXING-3A            
1 60179U 24122A   26203.77701194 -.00000309  00000+0  00000+0 0  9994
2 60179   0.0306 139.3053 0001619  19.7453 162.7656  1.00271192  7669
TURKSAT 6A              
1 60233U 24127A   26202.83848117  .00000149  00000+0  00000+0 0  9994
2 60233   0.0444 216.7267 0003146 310.1163 116.5770  1.00274233  7363
HULIANWAN GAOGUI-02 (H*)
1 60327U 24135A   26203.44625211 -.00000170  00000+0  00000+0 0  9998
2 60327   0.0479 358.6429 0005894  13.0934 242.1466  1.00274738  7850
ZHONGXING-4A            
1 60606U 24151A   26204.54766998 -.00000356  00000+0  00000+0 0  9992
2 60606   1.2225 270.3962 0000104 248.5090  97.7582  1.00271637  7118
HULIANWAN GAOGUI-03 (H*)
1 61503U 24181A   26203.89812196 -.00000237  00000+0  00000+0 0  9999
2 61503   0.0529   1.4631 0001533  86.3948  98.9604  1.00275075  7187
DSN-3 (KIRAMEKI-3)      
1 61733U 24198A   26204.56953166 -.00000245  00000+0  00000+0 0  9999
2 61733   0.0251 277.4585 0001223 222.5987 150.3257  1.00270571  6283
KOREASAT 6A             
1 61910U 24206A   26204.54766998 -.00000357  00000+0  00000+0 0  9993
2 61910   0.0003  92.5433 0001085 356.1249 165.7933  1.00272114  6202
OPTUS-X (ADS-01)        
1 62006U 24212A   26204.61754565 -.00000138  00000+0  00000+0 0  9999
2 62006   0.0398 264.2208 0002516 235.8439 180.0023  1.00271888  6126
GSAT-N2 (GSAT-20)       
1 62028U 24214A   26204.55445160 -.00000015  00000+0  00000+0 0  9990
2 62028   0.0572 257.2382 0002722 156.5768 155.0142  1.00273238  6262
SXM-9                   
1 62259U 24234A   26204.31033500 -.00000200  00000+0  00000+0 0  9999
2 62259   0.0146 351.4562 0004645 329.3108   6.8217  1.00270897  5933
TJS-12                  
1 62374U 24246A   26203.85715061 -.00000228  00000+0  00000+0 0  9997
2 62374   0.5955 303.0087 0001953 105.5609 347.0341  1.00267847  5926
NUVIEW ALPHA            
1 62455U 24252B   26204.52452472 -.00000210  00000+0  00000+0 0  9994
2 62455   0.0390  16.1130 0000935  64.2611 326.6038  1.00271467  4184
AGILA                   
1 62456U 24252C   26204.57117833 -.00000177  00000+0  00000+0 0  9991
2 62456   0.0426 211.7272 0001595 277.3715 169.9813  1.00271045  5520
NUVIEW BRAVO            
1 62457U 24252D   26204.52452472 -.00000210  00000+0  00000+0 0  9996
2 62457   0.0675 170.1923 0001909 336.4608 260.3331  1.00272830  4157
THURAYA-4               
1 62483U 25001A   26204.35669891  .00000144  00000+0  00000+0 0  9999
2 62483   0.0199  76.9748 0000330  62.7418 334.0969  1.00272811  4548
SHIJIAN-25 (SJ-25)      
1 62485U 25002A   26203.56829690 -.00000350  00000+0  00000+0 0  9999
2 62485   5.1950  60.9361 0050731 176.6753  34.4537  1.00275607  5710
TJS-14                  
1 62804U 25017A   26204.61589855  .00000121  00000+0  00000+0 0  9998
2 62804   0.7028 298.4491 0001807 300.4820 302.4885  1.00271525  5636
